start=new Date('2022-05-18T00:00:00.000Z').valueOf();
sats=[{"RA_OF_ASC_NODE":"76.1489","SEMIMAJOR_AXIS":"6925.333","MEAN_MOTION":"15.06405161","PERIAPSIS":"546.261","MEAN_ANOMALY":"284.1806","CENTER_NAME":"EARTH","APOAPSIS":"548.135","FILE":"3450137","GP_ID":"203780378","CLASSIFICATION_TYPE":"U","OBJECT_NAME":"STARLINK-1711","DECAY_DATE":null,"EPOCH":"2022-05-17T13:24:43.901280","TLE_LINE1":"1 46374U 20062BB  22137.55884145  .00001269  00000-0  10406-3 0  9991","REF_FRAME":"TEME","EPHEMERIS_TYPE":"0","SITE":"AFETR","ARG_OF_PERICENTER":"75.9333","OBJECT_TYPE":"PAYLOAD","TLE_LINE2":"2 46374  53.0561  76.1489 0001353  75.9333 284.1806 15.06405161 95465","REV_AT_EPOCH":"9546","ELEMENT_SET_NO":"999","BSTAR":"0.00010406000000","MEAN_MOTION_DDOT":"0.0000000000000","MEAN_MOTION_DOT":"0.00001269","OBJECT_ID":"2020-062BB","MEAN_ELEMENT_THEORY":"SGP4","ECCENTRICITY":"0.00013530","COUNTRY_CODE":"US","LAUNCH_DATE":"2020-09-03","NORAD_CAT_ID":"46374","RCS_SIZE":"LARGE","PERIOD":"95.592","TIME_SYSTEM":"UTC","INCLINATION":"53.0561"},{"COUNTRY_CODE":"US","ECCENTRICITY":"0.00024360","RCS_SIZE":"LARGE","NORAD_CAT_ID":"46375","PERIOD":"95.593","LAUNCH_DATE":"2020-09-03","BSTAR":"-0.00005899500000","MEAN_MOTION_DDOT":"0.0000000000000","ELEMENT_SET_NO":"999","MEAN_MOTION_DOT":"-0.00001160","MEAN_ELEMENT_THEORY":"SGP4","OBJECT_ID":"2020-062BC","INCLINATION":"53.0548","TIME_SYSTEM":"UTC","CENTER_NAME":"EARTH","APOAPSIS":"548.922","CLASSIFICATION_TYPE":"U","GP_ID":"203780137","OBJECT_NAME":"STARLINK-1724","FILE":"3450137","SEMIMAJOR_AXIS":"6925.370","RA_OF_ASC_NODE":"101.9534","MEAN_ANOMALY":"312.1062","PERIAPSIS":"545.548","MEAN_MOTION":"15.06393020","EPHEMERIS_TYPE":"0","REF_FRAME":"TEME","SITE":"AFETR","ARG_OF_PERICENTER":"48.0134","OBJECT_TYPE":"PAYLOAD","REV_AT_EPOCH":"9508","TLE_LINE2":"2 46375  53.0548 101.9534 0002436  48.0134 312.1062 15.06393020 95086","EPOCH":"2022-05-17T08:58:41.414880","DECAY_DATE":null,"TLE_LINE1":"1 46375U 20062BC  22137.37409045 -.00001160  00000-0 -58995-4 0  9992"},{"REF_FRAME":"TEME","EPHEMERIS_TYPE":"0","ARG_OF_PERICENTER":"57.1992","SITE":"AFETR","OBJECT_TYPE":"PAYLOAD","TLE_LINE2":"2 46376  53.0565 102.2029 0002088  57.1992 302.9198 15.06391279 95075","REV_AT_EPOCH":"9507","DECAY_DATE":null,"EPOCH":"2022-05-17T07:44:23.287200","TLE_LINE1":"1 46376U 20062BD  22137.32249175 -.00000001  00000-0  18828-4 0  9997","APOAPSIS":"548.686","CENTER_NAME":"EARTH","FILE":"3450137","GP_ID":"203781378","OBJECT_NAME":"STARLINK-1742","CLASSIFICATION_TYPE":"U","SEMIMAJOR_AXIS":"6925.375","RA_OF_ASC_NODE":"102.2029","MEAN_MOTION":"15.06391279","MEAN_ANOMALY":"302.9198","PERIAPSIS":"545.794","INCLINATION":"53.0565","TIME_SYSTEM":"UTC","ECCENTRICITY":"0.00020880","COUNTRY_CODE":"US","LAUNCH_DATE":"2020-09-03","RCS_SIZE":"LARGE","PERIOD":"95.593","NORAD_CAT_ID":"46376","ELEMENT_SET_NO":"999","BSTAR":"0.00001882800000","MEAN_MOTION_DDOT":"0.0000000000000","MEAN_MOTION_DOT":"-0.00000001","MEAN_ELEMENT_THEORY":"SGP4","OBJECT_ID":"2020-062BD"},{"RA_OF_ASC_NODE":"125.5669","SEMIMAJOR_AXIS":"6925.331","MEAN_ANOMALY":"312.9430","PERIAPSIS":"545.736","MEAN_MOTION":"15.06405602","CENTER_NAME":"EARTH","APOAPSIS":"548.657","CLASSIFICATION_TYPE":"U","GP_ID":"203788637","OBJECT_NAME":"STARLINK-1758","FILE":"3450277","EPOCH":"2022-05-17T16:29:10.796064","DECAY_DATE":null,"TLE_LINE1":"1 46380U 20062BH  22137.68693051  .00000758  00000-0  69801-4 0  9992","EPHEMERIS_TYPE":"0","REF_FRAME":"TEME","SITE":"AFETR","ARG_OF_PERICENTER":"47.1736","OBJECT_TYPE":"PAYLOAD","REV_AT_EPOCH":"9496","TLE_LINE2":"2 46380  53.0550 125.5669 0002109  47.1736 312.9430 15.06405602 94964","BSTAR":"0.00006980100000","MEAN_MOTION_DDOT":"0.0000000000000","ELEMENT_SET_NO":"999","MEAN_MOTION_DOT":"0.00000758","OBJECT_ID":"2020-062BH","MEAN_ELEMENT_THEORY":"SGP4","COUNTRY_CODE":"US","ECCENTRICITY":"0.00021090","RCS_SIZE":"LARGE","NORAD_CAT_ID":"46380","PERIOD":"95.592","LAUNCH_DATE":"2020-09-03","INCLINATION":"53.0550","TIME_SYSTEM":"UTC"},{"BSTAR":"0.00000189180000","MEAN_MOTION_DDOT":"0.0000000000000","ELEMENT_SET_NO":"999","MEAN_MOTION_DOT":"-0.00000254","OBJECT_ID":"2020-062BK","MEAN_ELEMENT_THEORY":"SGP4","COUNTRY_CODE":"US","ECCENTRICITY":"0.00020330","NORAD_CAT_ID":"46382","RCS_SIZE":"LARGE","PERIOD":"95.592","LAUNCH_DATE":"2020-09-03","INCLINATION":"53.0550","TIME_SYSTEM":"UTC","RA_OF_ASC_NODE":"100.9526","SEMIMAJOR_AXIS":"6925.363","PERIAPSIS":"545.820","MEAN_ANOMALY":"308.3972","MEAN_MOTION":"15.06395169","APOAPSIS":"548.636","CENTER_NAME":"EARTH","CLASSIFICATION_TYPE":"U","GP_ID":"203789500","OBJECT_NAME":"STARLINK-1769","FILE":"3450296","EPOCH":"2022-05-17T14:27:46.186560","DECAY_DATE":null,"TLE_LINE1":"1 46382U 20062BK  22137.60261790 -.00000254  00000-0  18918-5 0  9993","EPHEMERIS_TYPE":"0","REF_FRAME":"TEME","SITE":"AFETR","ARG_OF_PERICENTER":"51.7200","OBJECT_TYPE":"PAYLOAD","REV_AT_EPOCH":"9527","TLE_LINE2":"2 46382  53.0550 100.9526 0002033  51.7200 308.3972 15.06395169 95279"},{"TIME_SYSTEM":"UTC","INCLINATION":"53.0542","LAUNCH_DATE":"2020-09-03","RCS_SIZE":"LARGE","NORAD_CAT_ID":"46383","PERIOD":"95.592","ECCENTRICITY":"0.00016660","COUNTRY_CODE":"US","MEAN_MOTION_DOT":"0.00000882","ELEMENT_SET_NO":"999","MEAN_MOTION_DDOT":"0.0000000000000","BSTAR":"0.00007809300000","OBJECT_ID":"2020-062BL","MEAN_ELEMENT_THEORY":"SGP4","ARG_OF_PERICENTER":"50.9595","SITE":"AFETR","REF_FRAME":"TEME","EPHEMERIS_TYPE":"0","TLE_LINE2":"2 46383  53.0542 145.4124 0001666  50.9595 309.1542 15.06398149 94685","REV_AT_EPOCH":"9468","OBJECT_TYPE":"PAYLOAD","DECAY_DATE":null,"EPOCH":"2022-05-17T17:19:36.169824","TLE_LINE1":"1 46383U 20062BL  22137.72194641  .00000882  00000-0  78093-4 0  9992","CENTER_NAME":"EARTH","APOAPSIS":"548.373","FILE":"3450317","GP_ID":"203789512","CLASSIFICATION_TYPE":"U","OBJECT_NAME":"STARLINK-1770","RA_OF_ASC_NODE":"145.4124","SEMIMAJOR_AXIS":"6925.354","MEAN_MOTION":"15.06398149","PERIAPSIS":"546.065","MEAN_ANOMALY":"309.1542"},{"OBJECT_TYPE":"PAYLOAD","REV_AT_EPOCH":"9444","TLE_LINE2":"2 46384  53.0557 147.1855 0001513  56.4921 303.6212 15.06394627 94441","EPHEMERIS_TYPE":"0","REF_FRAME":"TEME","SITE":"AFETR","ARG_OF_PERICENTER":"56.4921","TLE_LINE1":"1 46384U 20062BM  22137.32755527  .00000205  00000-0  32647-4 0  9999","EPOCH":"2022-05-17T07:51:40.775328","DECAY_DATE":null,"CLASSIFICATION_TYPE":"U","GP_ID":"203780889","OBJECT_NAME":"STARLINK-1771","FILE":"3450137","CENTER_NAME":"EARTH","APOAPSIS":"548.278","MEAN_ANOMALY":"303.6212","PERIAPSIS":"546.182","MEAN_MOTION":"15.06394627","SEMIMAJOR_AXIS":"6925.365","RA_OF_ASC_NODE":"147.1855","INCLINATION":"53.0557","TIME_SYSTEM":"UTC","COUNTRY_CODE":"US","ECCENTRICITY":"0.00015130","RCS_SIZE":"LARGE","PERIOD":"95.592","NORAD_CAT_ID":"46384","LAUNCH_DATE":"2020-09-03","MEAN_ELEMENT_THEORY":"SGP4","OBJECT_ID":"2020-062BM","BSTAR":"0.00003264700000","MEAN_MOTION_DDOT":"0.0000000000000","ELEMENT_SET_NO":"999","MEAN_MOTION_DOT":"0.00000205"},{"APOAPSIS":"548.123","CENTER_NAME":"EARTH","CLASSIFICATION_TYPE":"U","GP_ID":"203794319","OBJECT_NAME":"STARLINK-1644","FILE":"3450502","RA_OF_ASC_NODE":"305.3827","SEMIMAJOR_AXIS":"6925.347","PERIAPSIS":"546.301","MEAN_ANOMALY":"273.5823","MEAN_MOTION":"15.06400493","ARG_OF_PERICENTER":"86.5317","SITE":"AFETR","EPHEMERIS_TYPE":"0","REF_FRAME":"TEME","REV_AT_EPOCH":"8972","TLE_LINE2":"2 46532  53.0541 305.3827 0001316  86.5317 273.5823 15.06400493 89727","OBJECT_TYPE":"PAYLOAD","EPOCH":"2022-05-17T17:24:54.963360","DECAY_DATE":null,"TLE_LINE1":"1 46532U 20070A   22137.72563615  .00002837  00000-0  20925-3 0  9990","NORAD_CAT_ID":"46532","RCS_SIZE":"LARGE","PERIOD":"95.592","LAUNCH_DATE":"2020-10-06","COUNTRY_CODE":"US","ECCENTRICITY":"0.00013160","MEAN_MOTION_DOT":"0.00002837","BSTAR":"0.00020925000000","MEAN_MOTION_DDOT":"0.0000000000000","ELEMENT_SET_NO":"999","OBJECT_ID":"2020-070A","MEAN_ELEMENT_THEORY":"SGP4","TIME_SYSTEM":"UTC","INCLINATION":"53.0541"},{"TLE_LINE1":"1 46533U 20070B   22137.47130403 -.00001469  00000-0 -79698-4 0  9992","DECAY_DATE":null,"EPOCH":"2022-05-17T11:18:40.668192","TLE_LINE2":"2 46533  53.0562 306.5175 0001396  72.9036 287.2105 15.06408956 89665","REV_AT_EPOCH":"8966","OBJECT_TYPE":"PAYLOAD","ARG_OF_PERICENTER":"72.9036","SITE":"AFETR","REF_FRAME":"TEME","EPHEMERIS_TYPE":"0","MEAN_MOTION":"15.06408956","MEAN_ANOMALY":"287.2105","PERIAPSIS":"546.219","SEMIMAJOR_AXIS":"6925.321","RA_OF_ASC_NODE":"306.5175","FILE":"3450137","OBJECT_NAME":"STARLINK-1648","GP_ID":"203782146","CLASSIFICATION_TYPE":"U","CENTER_NAME":"EARTH","APOAPSIS":"548.153","TIME_SYSTEM":"UTC","INCLINATION":"53.0562","MEAN_ELEMENT_THEORY":"SGP4","OBJECT_ID":"2020-070B","MEAN_MOTION_DOT":"-0.00001469","ELEMENT_SET_NO":"999","BSTAR":"-0.00007969800000","MEAN_MOTION_DDOT":"0.0000000000000","LAUNCH_DATE":"2020-10-06","RCS_SIZE":"LARGE","PERIOD":"95.592","NORAD_CAT_ID":"46533","ECCENTRICITY":"0.00013960","COUNTRY_CODE":"US"},{"DECAY_DATE":null,"EPOCH":"2022-05-17T12:27:40.962240","TLE_LINE1":"1 46534U 20070C   22137.51922410  .00001352  00000-0  10965-3 0  9995","SITE":"AFETR","ARG_OF_PERICENTER":"64.5164","REF_FRAME":"TEME","EPHEMERIS_TYPE":"0","TLE_LINE2":"2 46534  53.0534 306.3211 0001505  64.5164 295.5980 15.06399165 89670","REV_AT_EPOCH":"8967","OBJECT_TYPE":"PAYLOAD","RA_OF_ASC_NODE":"306.3211","SEMIMAJOR_AXIS":"6925.351","MEAN_MOTION":"15.06399165","PERIAPSIS":"546.174","MEAN_ANOMALY":"295.5980","CENTER_NAME":"EARTH","APOAPSIS":"548.258","FILE":"3450137","GP_ID":"203781905","CLASSIFICATION_TYPE":"U","OBJECT_NAME":"STARLINK-1659","INCLINATION":"53.0534","TIME_SYSTEM":"UTC","MEAN_MOTION_DOT":"0.00001352","ELEMENT_SET_NO":"999","BSTAR":"0.00010965000000","MEAN_MOTION_DDOT":"0.0000000000000","MEAN_ELEMENT_THEORY":"SGP4","OBJECT_ID":"2020-070C","LAUNCH_DATE":"2020-10-06","RCS_SIZE":"LARGE","NORAD_CAT_ID":"46534","PERIOD":"95.592","ECCENTRICITY":"0.00015050","COUNTRY_CODE":"US"}];
